[
    {
        "Altitude(m)": 624792.7883619516,
        "Argument of Periapsis(deg)": 0.0,
        "Eccentricity": 0.0,
        "Inclination(deg)": 60.0,
        "Latitude(deg)": -59.1471369572106,
        "Longitude(deg)": -20.973445765463612,
        "Mean Anomaly(deg)": -98.18179999999998,
        "RAAN(deg)": 184.99999999999997,
        "Satellite Name": "Test1 830",
        "Satellite Number": 830,
        "Semi-Major Axis(m)": 6980739.136638005,
        "Time(s)": 0
    },
    {
        "Altitude(m)": 624842.1797605249,
        "Argument of Periapsis(deg)": 0.00010418945913296404,
        "Eccentricity": 0.0,
        "Inclination(deg)": 60.0,
        "Latitude(deg)": -59.28921874665049,
        "Longitude(deg)": -19.843939237532382,
        "Mean Anomaly(deg)": -97.56169385453813,
        "RAAN(deg)": 184.99957995086024,
        "Satellite Name": "Test1 830",
        "Satellite Number": 830,
        "Semi-Major Axis(m)": 6980739.136638005,
        "Time(s)": 10
    }
]